<?xml version="1.0" encoding="UTF-8"?>
<gpx version="1.1" creator="Eat on GPX demo" xmlns="http://www.topografix.com/GPX/1/1">
  <metadata><name>デモBRM 札幌→苫小牧</name></metadata>
  <wpt lat="43.069351" lon="141.350333"><name>START　デモ駅前</name></wpt>
  <wpt lat="43.018560" lon="141.482164"><name>PC1　デモマート北広島店</name></wpt>
  <wpt lat="42.905855" lon="141.573212"><name>通過チェック　デモ公園</name></wpt>
  <wpt lat="42.823037" lon="141.654133"><name>PC2　デモストア千歳店</name></wpt>
  <wpt lat="42.634028" lon="141.604966"><name>FINISH　デモ港</name></wpt>
  <trk><name>デモBRM 札幌→苫小牧</name><trkseg>
    <trkpt lat="43.069351" lon="141.350333"></trkpt>
    <trkpt lat="43.069347" lon="141.350320"></trkpt>
    <trkpt lat="43.069336" lon="141.350279"></trkpt>
    <trkpt lat="43.069341" lon="141.350223"></trkpt>
    <trkpt lat="43.069277" lon="141.350032"></trkpt>
    <trkpt lat="43.069244" lon="141.349900"></trkpt>
    <trkpt lat="43.069302" lon="141.349893"></trkpt>
    <trkpt lat="43.069634" lon="141.349805"></trkpt>
    <trkpt lat="43.069817" lon="141.349760"></trkpt>
    <trkpt lat="43.070078" lon="141.349688"></trkpt>
    <trkpt lat="43.070187" lon="141.349658"></trkpt>
    <trkpt lat="43.070210" lon="141.349828"></trkpt>
    <trkpt lat="43.070339" lon="141.350782"></trkpt>
    <trkpt lat="43.070372" lon="141.351023"></trkpt>
    <trkpt lat="43.070396" lon="141.351200"></trkpt>
    <trkpt lat="43.070421" lon="141.351378"></trkpt>
    <trkpt lat="43.070589" lon="141.352604"></trkpt>
    <trkpt lat="43.070611" lon="141.352773"></trkpt>
    <trkpt lat="43.070633" lon="141.352939"></trkpt>
    <trkpt lat="43.070721" lon="141.353595"></trkpt>
    <trkpt lat="43.070814" lon="141.354264"></trkpt>
    <trkpt lat="43.070841" lon="141.354450"></trkpt>
    <trkpt lat="43.070854" lon="141.354552"></trkpt>
    <trkpt lat="43.070871" lon="141.354687"></trkpt>
    <trkpt lat="43.070888" lon="141.354816"></trkpt>
    <trkpt lat="43.070747" lon="141.354846"></trkpt>
    <trkpt lat="43.069881" lon="141.355073"></trkpt>
    <trkpt lat="43.069747" lon="141.355112"></trkpt>
    <trkpt lat="43.069614" lon="141.355152"></trkpt>
    <trkpt lat="43.069019" lon="141.355302"></trkpt>
    <trkpt lat="43.068501" lon="141.355419"></trkpt>
    <trkpt lat="43.068171" lon="141.355509"></trkpt>
    <trkpt lat="43.067589" lon="141.355667"></trkpt>
    <trkpt lat="43.067448" lon="141.355702"></trkpt>
    <trkpt lat="43.067315" lon="141.355735"></trkpt>
    <trkpt lat="43.066408" lon="141.355951"></trkpt>
    <trkpt lat="43.066274" lon="141.355987"></trkpt>
    <trkpt lat="43.065695" lon="141.356131"></trkpt>
    <trkpt lat="43.065638" lon="141.356145"></trkpt>
    <trkpt lat="43.065179" lon="141.356254"></trkpt>
    <trkpt lat="43.065067" lon="141.356281"></trkpt>
    <trkpt lat="43.064964" lon="141.356363"></trkpt>
    <trkpt lat="43.063978" lon="141.356617"></trkpt>
    <trkpt lat="43.063895" lon="141.356638"></trkpt>
    <trkpt lat="43.063783" lon="141.356666"></trkpt>
    <trkpt lat="43.062861" lon="141.356891"></trkpt>
    <trkpt lat="43.062748" lon="141.356911"></trkpt>
    <trkpt lat="43.062632" lon="141.356927"></trkpt>
    <trkpt lat="43.062169" lon="141.357042"></trkpt>
    <trkpt lat="43.061878" lon="141.357113"></trkpt>
    <trkpt lat="43.061623" lon="141.357186"></trkpt>
    <trkpt lat="43.061554" lon="141.357207"></trkpt>
    <trkpt lat="43.061482" lon="141.357230"></trkpt>
    <trkpt lat="43.061160" lon="141.357314"></trkpt>
    <trkpt lat="43.060847" lon="141.357373"></trkpt>
    <trkpt lat="43.060752" lon="141.357398"></trkpt>
    <trkpt lat="43.059833" lon="141.357642"></trkpt>
    <trkpt lat="43.059701" lon="141.357677"></trkpt>
    <trkpt lat="43.059580" lon="141.357708"></trkpt>
    <trkpt lat="43.058659" lon="141.357942"></trkpt>
    <trkpt lat="43.058555" lon="141.357969"></trkpt>
    <trkpt lat="43.058451" lon="141.357994"></trkpt>
    <trkpt lat="43.057982" lon="141.358112"></trkpt>
    <trkpt lat="43.057942" lon="141.358122"></trkpt>
    <trkpt lat="43.057524" lon="141.358227"></trkpt>
    <trkpt lat="43.057409" lon="141.358256"></trkpt>
    <trkpt lat="43.057293" lon="141.358286"></trkpt>
    <trkpt lat="43.056552" lon="141.358478"></trkpt>
    <trkpt lat="43.056442" lon="141.358505"></trkpt>
    <trkpt lat="43.056467" lon="141.358693"></trkpt>
    <trkpt lat="43.056546" lon="141.359284"></trkpt>
    <trkpt lat="43.056625" lon="141.359867"></trkpt>
    <trkpt lat="43.056651" lon="141.360055"></trkpt>
    <trkpt lat="43.056683" lon="141.360303"></trkpt>
    <trkpt lat="43.056755" lon="141.360839"></trkpt>
    <trkpt lat="43.056834" lon="141.361422"></trkpt>
    <trkpt lat="43.056852" lon="141.361611"></trkpt>
    <trkpt lat="43.056859" lon="141.361835"></trkpt>
    <trkpt lat="43.056848" lon="141.362130"></trkpt>
    <trkpt lat="43.056807" lon="141.362434"></trkpt>
    <trkpt lat="43.056729" lon="141.362755"></trkpt>
    <trkpt lat="43.056609" lon="141.363065"></trkpt>
    <trkpt lat="43.056485" lon="141.363316"></trkpt>
    <trkpt lat="43.056308" lon="141.363615"></trkpt>
    <trkpt lat="43.056257" lon="141.363661"></trkpt>
    <trkpt lat="43.056134" lon="141.363774"></trkpt>
    <trkpt lat="43.056076" lon="141.363857"></trkpt>
    <trkpt lat="43.055293" lon="141.365119"></trkpt>
    <trkpt lat="43.055233" lon="141.365215"></trkpt>
    <trkpt lat="43.055130" lon="141.365375"></trkpt>
    <trkpt lat="43.054594" lon="141.366233"></trkpt>
    <trkpt lat="43.054449" lon="141.366477"></trkpt>
    <trkpt lat="43.054301" lon="141.366715"></trkpt>
    <trkpt lat="43.054211" lon="141.366868"></trkpt>
    <trkpt lat="43.054123" lon="141.367014"></trkpt>
    <trkpt lat="43.053754" lon="141.367606"></trkpt>
    <trkpt lat="43.053511" lon="141.367999"></trkpt>
    <trkpt lat="43.053426" lon="141.368129"></trkpt>
    <trkpt lat="43.053312" lon="141.368320"></trkpt>
    <trkpt lat="43.053398" lon="141.368433"></trkpt>
    <trkpt lat="43.053753" lon="141.368846"></trkpt>
    <trkpt lat="43.054100" lon="141.369251"></trkpt>
    <trkpt lat="43.054179" lon="141.369343"></trkpt>
    <trkpt lat="43.054257" lon="141.369431"></trkpt>
    <trkpt lat="43.054625" lon="141.369850"></trkpt>
    <trkpt lat="43.055149" lon="141.370453"></trkpt>
    <trkpt lat="43.055226" lon="141.370548"></trkpt>
    <trkpt lat="43.055284" lon="141.370620"></trkpt>
    <trkpt lat="43.055322" lon="141.370669"></trkpt>
    <trkpt lat="43.055355" lon="141.370733"></trkpt>
    <trkpt lat="43.055464" lon="141.371036"></trkpt>
    <trkpt lat="43.055490" lon="141.371108"></trkpt>
    <trkpt lat="43.055678" lon="141.371616"></trkpt>
    <trkpt lat="43.055917" lon="141.372261"></trkpt>
    <trkpt lat="43.055924" lon="141.372279"></trkpt>
    <trkpt lat="43.055964" lon="141.372384"></trkpt>
    <trkpt lat="43.056202" lon="141.373032"></trkpt>
    <trkpt lat="43.056388" lon="141.373535"></trkpt>
    <trkpt lat="43.056442" lon="141.373670"></trkpt>
    <trkpt lat="43.056478" lon="141.373766"></trkpt>
    <trkpt lat="43.056512" lon="141.373867"></trkpt>
    <trkpt lat="43.056663" lon="141.374285"></trkpt>
    <trkpt lat="43.057006" lon="141.375223"></trkpt>
    <trkpt lat="43.057046" lon="141.375333"></trkpt>
    <trkpt lat="43.057081" lon="141.375437"></trkpt>
    <trkpt lat="43.057352" lon="141.376147"></trkpt>
    <trkpt lat="43.057643" lon="141.376940"></trkpt>
    <trkpt lat="43.057683" lon="141.377050"></trkpt>
    <trkpt lat="43.057890" lon="141.377592"></trkpt>
    <trkpt lat="43.057942" lon="141.377734"></trkpt>
    <trkpt lat="43.057999" lon="141.377883"></trkpt>
    <trkpt lat="43.058247" lon="141.378547"></trkpt>
    <trkpt lat="43.058266" lon="141.378599"></trkpt>
    <trkpt lat="43.058343" lon="141.378813"></trkpt>
    <trkpt lat="43.058544" lon="141.379362"></trkpt>
    <trkpt lat="43.058595" lon="141.379495"></trkpt>
    <trkpt lat="43.058607" lon="141.379527"></trkpt>
    <trkpt lat="43.058778" lon="141.380007"></trkpt>
    <trkpt lat="43.058891" lon="141.380304"></trkpt>
    <trkpt lat="43.059044" lon="141.380685"></trkpt>
    <trkpt lat="43.059159" lon="141.380894"></trkpt>
    <trkpt lat="43.059173" lon="141.380916"></trkpt>
    <trkpt lat="43.059247" lon="141.381034"></trkpt>
    <trkpt lat="43.059322" lon="141.381150"></trkpt>
    <trkpt lat="43.059832" lon="141.381969"></trkpt>
    <trkpt lat="43.059951" lon="141.382161"></trkpt>
    <trkpt lat="43.060253" lon="141.382643"></trkpt>
    <trkpt lat="43.060590" lon="141.383181"></trkpt>
    <trkpt lat="43.060667" lon="141.383317"></trkpt>
    <trkpt lat="43.060684" lon="141.383344"></trkpt>
    <trkpt lat="43.061220" lon="141.384204"></trkpt>
    <trkpt lat="43.061840" lon="141.385199"></trkpt>
    <trkpt lat="43.061941" lon="141.385354"></trkpt>
    <trkpt lat="43.061492" lon="141.386227"></trkpt>
    <trkpt lat="43.061393" lon="141.386415"></trkpt>
    <trkpt lat="43.061000" lon="141.387172"></trkpt>
    <trkpt lat="43.060956" lon="141.387252"></trkpt>
    <trkpt lat="43.060638" lon="141.387880"></trkpt>
    <trkpt lat="43.060365" lon="141.388392"></trkpt>
    <trkpt lat="43.060295" lon="141.388522"></trkpt>
    <trkpt lat="43.060244" lon="141.388615"></trkpt>
    <trkpt lat="43.059471" lon="141.390102"></trkpt>
    <trkpt lat="43.059359" lon="141.390316"></trkpt>
    <trkpt lat="43.058513" lon="141.391933"></trkpt>
    <trkpt lat="43.058317" lon="141.392327"></trkpt>
    <trkpt lat="43.057933" lon="141.393052"></trkpt>
    <trkpt lat="43.057811" lon="141.393283"></trkpt>
    <trkpt lat="43.057772" lon="141.393360"></trkpt>
    <trkpt lat="43.057264" lon="141.394347"></trkpt>
    <trkpt lat="43.057101" lon="141.394651"></trkpt>
    <trkpt lat="43.056595" lon="141.395612"></trkpt>
    <trkpt lat="43.056531" lon="141.395755"></trkpt>
    <trkpt lat="43.056453" lon="141.395904"></trkpt>
    <trkpt lat="43.056158" lon="141.396474"></trkpt>
    <trkpt lat="43.056050" lon="141.396690"></trkpt>
    <trkpt lat="43.055910" lon="141.396949"></trkpt>
    <trkpt lat="43.055701" lon="141.397355"></trkpt>
    <trkpt lat="43.055323" lon="141.398079"></trkpt>
    <trkpt lat="43.055268" lon="141.398190"></trkpt>
    <trkpt lat="43.055181" lon="141.398360"></trkpt>
    <trkpt lat="43.054953" lon="141.398789"></trkpt>
    <trkpt lat="43.054870" lon="141.398945"></trkpt>
    <trkpt lat="43.054769" lon="141.399135"></trkpt>
    <trkpt lat="43.054673" lon="141.399316"></trkpt>
    <trkpt lat="43.054645" lon="141.399371"></trkpt>
    <trkpt lat="43.054248" lon="141.400151"></trkpt>
    <trkpt lat="43.054180" lon="141.400267"></trkpt>
    <trkpt lat="43.054148" lon="141.400341"></trkpt>
    <trkpt lat="43.053901" lon="141.400810"></trkpt>
    <trkpt lat="43.053668" lon="141.401264"></trkpt>
    <trkpt lat="43.053617" lon="141.401359"></trkpt>
    <trkpt lat="43.053429" lon="141.401713"></trkpt>
    <trkpt lat="43.053401" lon="141.401771"></trkpt>
    <trkpt lat="43.053221" lon="141.402127"></trkpt>
    <trkpt lat="43.053197" lon="141.402168"></trkpt>
    <trkpt lat="43.052975" lon="141.402592"></trkpt>
    <trkpt lat="43.052827" lon="141.402863"></trkpt>
    <trkpt lat="43.052579" lon="141.403339"></trkpt>
    <trkpt lat="43.052511" lon="141.403471"></trkpt>
    <trkpt lat="43.052414" lon="141.403643"></trkpt>
    <trkpt lat="43.052347" lon="141.403775"></trkpt>
    <trkpt lat="43.052202" lon="141.404059"></trkpt>
    <trkpt lat="43.051910" lon="141.404618"></trkpt>
    <trkpt lat="43.051873" lon="141.404682"></trkpt>
    <trkpt lat="43.051527" lon="141.405347"></trkpt>
    <trkpt lat="43.051347" lon="141.405681"></trkpt>
    <trkpt lat="43.051283" lon="141.405799"></trkpt>
    <trkpt lat="43.051090" lon="141.406155"></trkpt>
    <trkpt lat="43.050884" lon="141.406537"></trkpt>
    <trkpt lat="43.050409" lon="141.407419"></trkpt>
    <trkpt lat="43.050360" lon="141.407506"></trkpt>
    <trkpt lat="43.050173" lon="141.407853"></trkpt>
    <trkpt lat="43.050154" lon="141.407892"></trkpt>
    <trkpt lat="43.050069" lon="141.408040"></trkpt>
    <trkpt lat="43.049651" lon="141.408802"></trkpt>
    <trkpt lat="43.049390" lon="141.409274"></trkpt>
    <trkpt lat="43.049325" lon="141.409396"></trkpt>
    <trkpt lat="43.049218" lon="141.409603"></trkpt>
    <trkpt lat="43.048900" lon="141.410175"></trkpt>
    <trkpt lat="43.048716" lon="141.410511"></trkpt>
    <trkpt lat="43.048648" lon="141.410632"></trkpt>
    <trkpt lat="43.048231" lon="141.411386"></trkpt>
    <trkpt lat="43.048097" lon="141.411631"></trkpt>
    <trkpt lat="43.047489" lon="141.412745"></trkpt>
    <trkpt lat="43.047410" lon="141.412890"></trkpt>
    <trkpt lat="43.047324" lon="141.413045"></trkpt>
    <trkpt lat="43.046840" lon="141.413920"></trkpt>
    <trkpt lat="43.046601" lon="141.414367"></trkpt>
    <trkpt lat="43.046345" lon="141.414815"></trkpt>
    <trkpt lat="43.046130" lon="141.415203"></trkpt>
    <trkpt lat="43.045837" lon="141.415733"></trkpt>
    <trkpt lat="43.045402" lon="141.416518"></trkpt>
    <trkpt lat="43.045323" lon="141.416661"></trkpt>
    <trkpt lat="43.045230" lon="141.416829"></trkpt>
    <trkpt lat="43.044643" lon="141.417889"></trkpt>
    <trkpt lat="43.044583" lon="141.417998"></trkpt>
    <trkpt lat="43.044221" lon="141.418652"></trkpt>
    <trkpt lat="43.044014" lon="141.419024"></trkpt>
    <trkpt lat="43.043616" lon="141.419743"></trkpt>
    <trkpt lat="43.043547" lon="141.419872"></trkpt>
    <trkpt lat="43.043038" lon="141.420774"></trkpt>
    <trkpt lat="43.042979" lon="141.420876"></trkpt>
    <trkpt lat="43.042926" lon="141.420966"></trkpt>
    <trkpt lat="43.042845" lon="141.421110"></trkpt>
    <trkpt lat="43.042488" lon="141.421731"></trkpt>
    <trkpt lat="43.042470" lon="141.421763"></trkpt>
    <trkpt lat="43.042151" lon="141.422319"></trkpt>
    <trkpt lat="43.042090" lon="141.422426"></trkpt>
    <trkpt lat="43.041988" lon="141.422602"></trkpt>
    <trkpt lat="43.041924" lon="141.422714"></trkpt>
    <trkpt lat="43.041776" lon="141.422990"></trkpt>
    <trkpt lat="43.041402" lon="141.423623"></trkpt>
    <trkpt lat="43.041328" lon="141.423753"></trkpt>
    <trkpt lat="43.041271" lon="141.423851"></trkpt>
    <trkpt lat="43.040881" lon="141.424538"></trkpt>
    <trkpt lat="43.040729" lon="141.424816"></trkpt>
    <trkpt lat="43.040477" lon="141.425234"></trkpt>
    <trkpt lat="43.040048" lon="141.425982"></trkpt>
    <trkpt lat="43.039880" lon="141.426277"></trkpt>
    <trkpt lat="43.039651" lon="141.426674"></trkpt>
    <trkpt lat="43.039575" lon="141.426806"></trkpt>
    <trkpt lat="43.039482" lon="141.426968"></trkpt>
    <trkpt lat="43.039139" lon="141.427571"></trkpt>
    <trkpt lat="43.038792" lon="141.428195"></trkpt>
    <trkpt lat="43.038694" lon="141.428364"></trkpt>
    <trkpt lat="43.037964" lon="141.429637"></trkpt>
    <trkpt lat="43.037919" lon="141.429718"></trkpt>
    <trkpt lat="43.037766" lon="141.429990"></trkpt>
    <trkpt lat="43.037714" lon="141.430081"></trkpt>
    <trkpt lat="43.037124" lon="141.431107"></trkpt>
    <trkpt lat="43.036804" lon="141.431645"></trkpt>
    <trkpt lat="43.036288" lon="141.432546"></trkpt>
    <trkpt lat="43.036143" lon="141.432799"></trkpt>
    <trkpt lat="43.036098" lon="141.432879"></trkpt>
    <trkpt lat="43.036073" lon="141.432923"></trkpt>
    <trkpt lat="43.035923" lon="141.433182"></trkpt>
    <trkpt lat="43.035635" lon="141.433694"></trkpt>
    <trkpt lat="43.035522" lon="141.433896"></trkpt>
    <trkpt lat="43.035489" lon="141.433958"></trkpt>
    <trkpt lat="43.035343" lon="141.434221"></trkpt>
    <trkpt lat="43.034868" lon="141.435037"></trkpt>
    <trkpt lat="43.034502" lon="141.435686"></trkpt>
    <trkpt lat="43.034176" lon="141.436262"></trkpt>
    <trkpt lat="43.034106" lon="141.436387"></trkpt>
    <trkpt lat="43.034007" lon="141.436550"></trkpt>
    <trkpt lat="43.033499" lon="141.437448"></trkpt>
    <trkpt lat="43.033286" lon="141.437789"></trkpt>
    <trkpt lat="43.033150" lon="141.438034"></trkpt>
    <trkpt lat="43.033069" lon="141.438176"></trkpt>
    <trkpt lat="43.032916" lon="141.438432"></trkpt>
    <trkpt lat="43.032837" lon="141.438566"></trkpt>
    <trkpt lat="43.032417" lon="141.439303"></trkpt>
    <trkpt lat="43.032346" lon="141.439436"></trkpt>
    <trkpt lat="43.030787" lon="141.442137"></trkpt>
    <trkpt lat="43.030700" lon="141.442288"></trkpt>
    <trkpt lat="43.030498" lon="141.442629"></trkpt>
    <trkpt lat="43.030463" lon="141.442690"></trkpt>
    <trkpt lat="43.029187" lon="141.444905"></trkpt>
    <trkpt lat="43.029123" lon="141.445019"></trkpt>
    <trkpt lat="43.028743" lon="141.445672"></trkpt>
    <trkpt lat="43.028679" lon="141.445777"></trkpt>
    <trkpt lat="43.028461" lon="141.446178"></trkpt>
    <trkpt lat="43.028136" lon="141.446658"></trkpt>
    <trkpt lat="43.028050" lon="141.446819"></trkpt>
    <trkpt lat="43.027999" lon="141.446937"></trkpt>
    <trkpt lat="43.027947" lon="141.447094"></trkpt>
    <trkpt lat="43.027918" lon="141.447222"></trkpt>
    <trkpt lat="43.027573" lon="141.447143"></trkpt>
    <trkpt lat="43.027472" lon="141.447119"></trkpt>
    <trkpt lat="43.027444" lon="141.447232"></trkpt>
    <trkpt lat="43.027209" lon="141.448136"></trkpt>
    <trkpt lat="43.027142" lon="141.448483"></trkpt>
    <trkpt lat="43.027109" lon="141.448689"></trkpt>
    <trkpt lat="43.027104" lon="141.448752"></trkpt>
    <trkpt lat="43.027080" lon="141.449058"></trkpt>
    <trkpt lat="43.027073" lon="141.449700"></trkpt>
    <trkpt lat="43.026942" lon="141.449877"></trkpt>
    <trkpt lat="43.026872" lon="141.449972"></trkpt>
    <trkpt lat="43.026570" lon="141.450383"></trkpt>
    <trkpt lat="43.026153" lon="141.451054"></trkpt>
    <trkpt lat="43.026050" lon="141.451219"></trkpt>
    <trkpt lat="43.024934" lon="141.453048"></trkpt>
    <trkpt lat="43.024893" lon="141.453084"></trkpt>
    <trkpt lat="43.024858" lon="141.453151"></trkpt>
    <trkpt lat="43.024544" lon="141.453740"></trkpt>
    <trkpt lat="43.023616" lon="141.455485"></trkpt>
    <trkpt lat="43.023295" lon="141.456221"></trkpt>
    <trkpt lat="43.022940" lon="141.456915"></trkpt>
    <trkpt lat="43.022403" lon="141.457789"></trkpt>
    <trkpt lat="43.022197" lon="141.458278"></trkpt>
    <trkpt lat="43.022162" lon="141.458462"></trkpt>
    <trkpt lat="43.022148" lon="141.458643"></trkpt>
    <trkpt lat="43.022147" lon="141.458781"></trkpt>
    <trkpt lat="43.022154" lon="141.458922"></trkpt>
    <trkpt lat="43.022180" lon="141.459074"></trkpt>
    <trkpt lat="43.022241" lon="141.459240"></trkpt>
    <trkpt lat="43.022380" lon="141.459662"></trkpt>
    <trkpt lat="43.022584" lon="141.460204"></trkpt>
    <trkpt lat="43.022689" lon="141.460483"></trkpt>
    <trkpt lat="43.023090" lon="141.461527"></trkpt>
    <trkpt lat="43.023361" lon="141.462176"></trkpt>
    <trkpt lat="43.024791" lon="141.465570"></trkpt>
    <trkpt lat="43.024858" lon="141.465735"></trkpt>
    <trkpt lat="43.024868" lon="141.465781"></trkpt>
    <trkpt lat="43.024891" lon="141.465928"></trkpt>
    <trkpt lat="43.024803" lon="141.466120"></trkpt>
    <trkpt lat="43.024457" lon="141.466829"></trkpt>
    <trkpt lat="43.024302" lon="141.467159"></trkpt>
    <trkpt lat="43.024052" lon="141.467687"></trkpt>
    <trkpt lat="43.023882" lon="141.468062"></trkpt>
    <trkpt lat="43.023859" lon="141.468104"></trkpt>
    <trkpt lat="43.023822" lon="141.468187"></trkpt>
    <trkpt lat="43.023718" lon="141.468418"></trkpt>
    <trkpt lat="43.023502" lon="141.468905"></trkpt>
    <trkpt lat="43.023344" lon="141.469261"></trkpt>
    <trkpt lat="43.023149" lon="141.469713"></trkpt>
    <trkpt lat="43.022581" lon="141.470981"></trkpt>
    <trkpt lat="43.022386" lon="141.471406"></trkpt>
    <trkpt lat="43.022362" lon="141.471461"></trkpt>
    <trkpt lat="43.022282" lon="141.471639"></trkpt>
    <trkpt lat="43.022237" lon="141.471736"></trkpt>
    <trkpt lat="43.022129" lon="141.471963"></trkpt>
    <trkpt lat="43.021350" lon="141.473659"></trkpt>
    <trkpt lat="43.021133" lon="141.474135"></trkpt>
    <trkpt lat="43.020915" lon="141.474605"></trkpt>
    <trkpt lat="43.020843" lon="141.474762"></trkpt>
    <trkpt lat="43.020782" lon="141.474900"></trkpt>
    <trkpt lat="43.020073" lon="141.476444"></trkpt>
    <trkpt lat="43.019861" lon="141.476882"></trkpt>
    <trkpt lat="43.019787" lon="141.477046"></trkpt>
    <trkpt lat="43.019718" lon="141.477212"></trkpt>
    <trkpt lat="43.019140" lon="141.478461"></trkpt>
    <trkpt lat="43.018977" lon="141.478902"></trkpt>
    <trkpt lat="43.018878" lon="141.479216"></trkpt>
    <trkpt lat="43.018855" lon="141.479297"></trkpt>
    <trkpt lat="43.018774" lon="141.479601"></trkpt>
    <trkpt lat="43.018704" lon="141.479905"></trkpt>
    <trkpt lat="43.018636" lon="141.480262"></trkpt>
    <trkpt lat="43.018594" lon="141.480534"></trkpt>
    <trkpt lat="43.018567" lon="141.480808"></trkpt>
    <trkpt lat="43.018546" lon="141.481080"></trkpt>
    <trkpt lat="43.018538" lon="141.481316"></trkpt>
    <trkpt lat="43.018534" lon="141.481554"></trkpt>
    <trkpt lat="43.018540" lon="141.481819"></trkpt>
    <trkpt lat="43.018548" lon="141.482007"></trkpt>
    <trkpt lat="43.018560" lon="141.482164"></trkpt>
    <trkpt lat="43.018660" lon="141.483639"></trkpt>
    <trkpt lat="43.018671" lon="141.483877"></trkpt>
    <trkpt lat="43.018686" lon="141.484432"></trkpt>
    <trkpt lat="43.018684" lon="141.484605"></trkpt>
    <trkpt lat="43.018685" lon="141.484777"></trkpt>
    <trkpt lat="43.018673" lon="141.485126"></trkpt>
    <trkpt lat="43.018657" lon="141.485353"></trkpt>
    <trkpt lat="43.018642" lon="141.485502"></trkpt>
    <trkpt lat="43.018619" lon="141.485729"></trkpt>
    <trkpt lat="43.018588" lon="141.485941"></trkpt>
    <trkpt lat="43.018560" lon="141.486121"></trkpt>
    <trkpt lat="43.018538" lon="141.486247"></trkpt>
    <trkpt lat="43.018514" lon="141.486373"></trkpt>
    <trkpt lat="43.018482" lon="141.486525"></trkpt>
    <trkpt lat="43.018429" lon="141.486769"></trkpt>
    <trkpt lat="43.018292" lon="141.487303"></trkpt>
    <trkpt lat="43.018150" lon="141.487807"></trkpt>
    <trkpt lat="43.017930" lon="141.488634"></trkpt>
    <trkpt lat="43.017916" lon="141.488685"></trkpt>
    <trkpt lat="43.017872" lon="141.488851"></trkpt>
    <trkpt lat="43.017841" lon="141.488970"></trkpt>
    <trkpt lat="43.017793" lon="141.489146"></trkpt>
    <trkpt lat="43.016796" lon="141.492819"></trkpt>
    <trkpt lat="43.015747" lon="141.496761"></trkpt>
    <trkpt lat="43.015713" lon="141.496879"></trkpt>
    <trkpt lat="43.015667" lon="141.497035"></trkpt>
    <trkpt lat="43.015473" lon="141.497765"></trkpt>
    <trkpt lat="43.015313" lon="141.498333"></trkpt>
    <trkpt lat="43.014948" lon="141.499629"></trkpt>
    <trkpt lat="43.014800" lon="141.500092"></trkpt>
    <trkpt lat="43.014586" lon="141.500721"></trkpt>
    <trkpt lat="43.014390" lon="141.501290"></trkpt>
    <trkpt lat="43.014337" lon="141.501452"></trkpt>
    <trkpt lat="43.014289" lon="141.501589"></trkpt>
    <trkpt lat="43.014124" lon="141.502130"></trkpt>
    <trkpt lat="43.013552" lon="141.503832"></trkpt>
    <trkpt lat="43.013280" lon="141.504624"></trkpt>
    <trkpt lat="43.013166" lon="141.504946"></trkpt>
    <trkpt lat="43.012528" lon="141.506885"></trkpt>
    <trkpt lat="43.012321" lon="141.507510"></trkpt>
    <trkpt lat="43.012274" lon="141.507653"></trkpt>
    <trkpt lat="43.012226" lon="141.507801"></trkpt>
    <trkpt lat="43.011782" lon="141.509173"></trkpt>
    <trkpt lat="43.011153" lon="141.511115"></trkpt>
    <trkpt lat="43.010931" lon="141.511803"></trkpt>
    <trkpt lat="43.010248" lon="141.513874"></trkpt>
    <trkpt lat="43.008389" lon="141.519609"></trkpt>
    <trkpt lat="43.008147" lon="141.520240"></trkpt>
    <trkpt lat="43.007909" lon="141.520798"></trkpt>
    <trkpt lat="43.007263" lon="141.522112"></trkpt>
    <trkpt lat="43.006704" lon="141.523251"></trkpt>
    <trkpt lat="43.006459" lon="141.523808"></trkpt>
    <trkpt lat="43.006204" lon="141.524523"></trkpt>
    <trkpt lat="43.005757" lon="141.525965"></trkpt>
    <trkpt lat="43.005715" lon="141.526096"></trkpt>
    <trkpt lat="43.005666" lon="141.526252"></trkpt>
    <trkpt lat="43.005257" lon="141.527597"></trkpt>
    <trkpt lat="43.004714" lon="141.529404"></trkpt>
    <trkpt lat="43.004418" lon="141.530243"></trkpt>
    <trkpt lat="43.004145" lon="141.530817"></trkpt>
    <trkpt lat="43.003861" lon="141.531281"></trkpt>
    <trkpt lat="43.003394" lon="141.531863"></trkpt>
    <trkpt lat="43.002928" lon="141.532364"></trkpt>
    <trkpt lat="43.001375" lon="141.533918"></trkpt>
    <trkpt lat="43.001132" lon="141.534175"></trkpt>
    <trkpt lat="43.000904" lon="141.534441"></trkpt>
    <trkpt lat="43.000659" lon="141.534753"></trkpt>
    <trkpt lat="43.000375" lon="141.535164"></trkpt>
    <trkpt lat="43.000073" lon="141.535677"></trkpt>
    <trkpt lat="42.999869" lon="141.536100"></trkpt>
    <trkpt lat="42.999678" lon="141.536546"></trkpt>
    <trkpt lat="42.999460" lon="141.537198"></trkpt>
    <trkpt lat="42.999387" lon="141.537439"></trkpt>
    <trkpt lat="42.999199" lon="141.538270"></trkpt>
    <trkpt lat="42.999112" lon="141.538719"></trkpt>
    <trkpt lat="42.998992" lon="141.539410"></trkpt>
    <trkpt lat="42.998895" lon="141.539976"></trkpt>
    <trkpt lat="42.998769" lon="141.540690"></trkpt>
    <trkpt lat="42.998703" lon="141.541042"></trkpt>
    <trkpt lat="42.998631" lon="141.541614"></trkpt>
    <trkpt lat="42.998606" lon="141.541972"></trkpt>
    <trkpt lat="42.998595" lon="141.542299"></trkpt>
    <trkpt lat="42.998600" lon="141.542635"></trkpt>
    <trkpt lat="42.998633" lon="141.543072"></trkpt>
    <trkpt lat="42.998677" lon="141.543414"></trkpt>
    <trkpt lat="42.998800" lon="141.544045"></trkpt>
    <trkpt lat="42.999091" lon="141.545466"></trkpt>
    <trkpt lat="42.999134" lon="141.545752"></trkpt>
    <trkpt lat="42.999201" lon="141.546301"></trkpt>
    <trkpt lat="42.999204" lon="141.546323"></trkpt>
    <trkpt lat="42.999213" lon="141.546501"></trkpt>
    <trkpt lat="42.999217" lon="141.546729"></trkpt>
    <trkpt lat="42.999216" lon="141.547582"></trkpt>
    <trkpt lat="42.999189" lon="141.548750"></trkpt>
    <trkpt lat="42.999182" lon="141.549069"></trkpt>
    <trkpt lat="42.999114" lon="141.552013"></trkpt>
    <trkpt lat="42.999084" lon="141.553061"></trkpt>
    <trkpt lat="42.999039" lon="141.553656"></trkpt>
    <trkpt lat="42.998966" lon="141.554236"></trkpt>
    <trkpt lat="42.998660" lon="141.555925"></trkpt>
    <trkpt lat="42.998580" lon="141.556347"></trkpt>
    <trkpt lat="42.998553" lon="141.556485"></trkpt>
    <trkpt lat="42.998520" lon="141.556648"></trkpt>
    <trkpt lat="42.997960" lon="141.559726"></trkpt>
    <trkpt lat="42.997782" lon="141.560710"></trkpt>
    <trkpt lat="42.997628" lon="141.561696"></trkpt>
    <trkpt lat="42.997584" lon="141.561984"></trkpt>
    <trkpt lat="42.997476" lon="141.562009"></trkpt>
    <trkpt lat="42.997290" lon="141.562081"></trkpt>
    <trkpt lat="42.996410" lon="141.562282"></trkpt>
    <trkpt lat="42.995402" lon="141.562522"></trkpt>
    <trkpt lat="42.995298" lon="141.562547"></trkpt>
    <trkpt lat="42.994059" lon="141.562839"></trkpt>
    <trkpt lat="42.993145" lon="141.563056"></trkpt>
    <trkpt lat="42.993028" lon="141.563070"></trkpt>
    <trkpt lat="42.992554" lon="141.563187"></trkpt>
    <trkpt lat="42.992444" lon="141.563213"></trkpt>
    <trkpt lat="42.991898" lon="141.563339"></trkpt>
    <trkpt lat="42.990236" lon="141.563737"></trkpt>
    <trkpt lat="42.990126" lon="141.563762"></trkpt>
    <trkpt lat="42.989803" lon="141.563842"></trkpt>
    <trkpt lat="42.989644" lon="141.563877"></trkpt>
    <trkpt lat="42.989588" lon="141.563890"></trkpt>
    <trkpt lat="42.989017" lon="141.564022"></trkpt>
    <trkpt lat="42.988820" lon="141.564065"></trkpt>
    <trkpt lat="42.988777" lon="141.564074"></trkpt>
    <trkpt lat="42.988429" lon="141.564153"></trkpt>
    <trkpt lat="42.988247" lon="141.564196"></trkpt>
    <trkpt lat="42.986909" lon="141.564506"></trkpt>
    <trkpt lat="42.986765" lon="141.564539"></trkpt>
    <trkpt lat="42.986668" lon="141.564556"></trkpt>
    <trkpt lat="42.986573" lon="141.564345"></trkpt>
    <trkpt lat="42.986256" lon="141.563633"></trkpt>
    <trkpt lat="42.986212" lon="141.563533"></trkpt>
    <trkpt lat="42.986158" lon="141.563412"></trkpt>
    <trkpt lat="42.985809" lon="141.562638"></trkpt>
    <trkpt lat="42.985764" lon="141.562676"></trkpt>
    <trkpt lat="42.985709" lon="141.562722"></trkpt>
    <trkpt lat="42.985709" lon="141.562722"></trkpt>
    <trkpt lat="42.985764" lon="141.562676"></trkpt>
    <trkpt lat="42.985809" lon="141.562638"></trkpt>
    <trkpt lat="42.985884" lon="141.562576"></trkpt>
    <trkpt lat="42.986227" lon="141.563353"></trkpt>
    <trkpt lat="42.986273" lon="141.563454"></trkpt>
    <trkpt lat="42.986337" lon="141.563568"></trkpt>
    <trkpt lat="42.986667" lon="141.564323"></trkpt>
    <trkpt lat="42.986765" lon="141.564539"></trkpt>
    <trkpt lat="42.986668" lon="141.564556"></trkpt>
    <trkpt lat="42.986508" lon="141.564594"></trkpt>
    <trkpt lat="42.986393" lon="141.564621"></trkpt>
    <trkpt lat="42.986065" lon="141.564706"></trkpt>
    <trkpt lat="42.985726" lon="141.564772"></trkpt>
    <trkpt lat="42.985111" lon="141.564787"></trkpt>
    <trkpt lat="42.984199" lon="141.564778"></trkpt>
    <trkpt lat="42.983377" lon="141.564781"></trkpt>
    <trkpt lat="42.983000" lon="141.564767"></trkpt>
    <trkpt lat="42.982731" lon="141.564770"></trkpt>
    <trkpt lat="42.982259" lon="141.564761"></trkpt>
    <trkpt lat="42.982067" lon="141.564758"></trkpt>
    <trkpt lat="42.982004" lon="141.564760"></trkpt>
    <trkpt lat="42.981704" lon="141.564755"></trkpt>
    <trkpt lat="42.981537" lon="141.564793"></trkpt>
    <trkpt lat="42.981402" lon="141.564819"></trkpt>
    <trkpt lat="42.981279" lon="141.564867"></trkpt>
    <trkpt lat="42.980834" lon="141.565148"></trkpt>
    <trkpt lat="42.980368" lon="141.565435"></trkpt>
    <trkpt lat="42.980254" lon="141.565506"></trkpt>
    <trkpt lat="42.980136" lon="141.565578"></trkpt>
    <trkpt lat="42.979549" lon="141.565938"></trkpt>
    <trkpt lat="42.979010" lon="141.566260"></trkpt>
    <trkpt lat="42.978904" lon="141.566342"></trkpt>
    <trkpt lat="42.978786" lon="141.566413"></trkpt>
    <trkpt lat="42.978680" lon="141.566468"></trkpt>
    <trkpt lat="42.978525" lon="141.566535"></trkpt>
    <trkpt lat="42.978273" lon="141.566623"></trkpt>
    <trkpt lat="42.977884" lon="141.566729"></trkpt>
    <trkpt lat="42.977657" lon="141.566788"></trkpt>
    <trkpt lat="42.976978" lon="141.566977"></trkpt>
    <trkpt lat="42.976628" lon="141.567059"></trkpt>
    <trkpt lat="42.976241" lon="141.567162"></trkpt>
    <trkpt lat="42.975797" lon="141.567275"></trkpt>
    <trkpt lat="42.974880" lon="141.567535"></trkpt>
    <trkpt lat="42.974560" lon="141.567633"></trkpt>
    <trkpt lat="42.974336" lon="141.567702"></trkpt>
    <trkpt lat="42.974236" lon="141.567760"></trkpt>
    <trkpt lat="42.974098" lon="141.567822"></trkpt>
    <trkpt lat="42.973579" lon="141.568093"></trkpt>
    <trkpt lat="42.972785" lon="141.568475"></trkpt>
    <trkpt lat="42.972308" lon="141.568711"></trkpt>
    <trkpt lat="42.971997" lon="141.568844"></trkpt>
    <trkpt lat="42.971476" lon="141.569116"></trkpt>
    <trkpt lat="42.971276" lon="141.569198"></trkpt>
    <trkpt lat="42.971048" lon="141.569266"></trkpt>
    <trkpt lat="42.970841" lon="141.569299"></trkpt>
    <trkpt lat="42.970378" lon="141.569349"></trkpt>
    <trkpt lat="42.969997" lon="141.569397"></trkpt>
    <trkpt lat="42.969512" lon="141.569456"></trkpt>
    <trkpt lat="42.969474" lon="141.569459"></trkpt>
    <trkpt lat="42.969118" lon="141.569489"></trkpt>
    <trkpt lat="42.968964" lon="141.569503"></trkpt>
    <trkpt lat="42.968753" lon="141.569523"></trkpt>
    <trkpt lat="42.968655" lon="141.569536"></trkpt>
    <trkpt lat="42.968483" lon="141.569611"></trkpt>
    <trkpt lat="42.968119" lon="141.569713"></trkpt>
    <trkpt lat="42.967864" lon="141.569825"></trkpt>
    <trkpt lat="42.967693" lon="141.569912"></trkpt>
    <trkpt lat="42.967511" lon="141.570030"></trkpt>
    <trkpt lat="42.967270" lon="141.570213"></trkpt>
    <trkpt lat="42.966199" lon="141.571175"></trkpt>
    <trkpt lat="42.965766" lon="141.571542"></trkpt>
    <trkpt lat="42.965512" lon="141.571703"></trkpt>
    <trkpt lat="42.965305" lon="141.571816"></trkpt>
    <trkpt lat="42.964971" lon="141.571939"></trkpt>
    <trkpt lat="42.964689" lon="141.572004"></trkpt>
    <trkpt lat="42.964375" lon="141.572047"></trkpt>
    <trkpt lat="42.964038" lon="141.572075"></trkpt>
    <trkpt lat="42.963996" lon="141.572036"></trkpt>
    <trkpt lat="42.961371" lon="141.572254"></trkpt>
    <trkpt lat="42.961163" lon="141.572271"></trkpt>
    <trkpt lat="42.960049" lon="141.572360"></trkpt>
    <trkpt lat="42.958813" lon="141.572453"></trkpt>
    <trkpt lat="42.956724" lon="141.572618"></trkpt>
    <trkpt lat="42.954991" lon="141.572769"></trkpt>
    <trkpt lat="42.952815" lon="141.572949"></trkpt>
    <trkpt lat="42.952035" lon="141.573014"></trkpt>
    <trkpt lat="42.951672" lon="141.573005"></trkpt>
    <trkpt lat="42.951463" lon="141.573047"></trkpt>
    <trkpt lat="42.951040" lon="141.572920"></trkpt>
    <trkpt lat="42.950729" lon="141.572779"></trkpt>
    <trkpt lat="42.950390" lon="141.572535"></trkpt>
    <trkpt lat="42.950145" lon="141.572302"></trkpt>
    <trkpt lat="42.949914" lon="141.572041"></trkpt>
    <trkpt lat="42.949329" lon="141.571280"></trkpt>
    <trkpt lat="42.949077" lon="141.570958"></trkpt>
    <trkpt lat="42.948686" lon="141.570434"></trkpt>
    <trkpt lat="42.948395" lon="141.570064"></trkpt>
    <trkpt lat="42.948062" lon="141.569751"></trkpt>
    <trkpt lat="42.947793" lon="141.569522"></trkpt>
    <trkpt lat="42.947390" lon="141.569263"></trkpt>
    <trkpt lat="42.947209" lon="141.569161"></trkpt>
    <trkpt lat="42.946753" lon="141.568954"></trkpt>
    <trkpt lat="42.946470" lon="141.568855"></trkpt>
    <trkpt lat="42.946226" lon="141.568791"></trkpt>
    <trkpt lat="42.945856" lon="141.568729"></trkpt>
    <trkpt lat="42.944662" lon="141.568635"></trkpt>
    <trkpt lat="42.943897" lon="141.568559"></trkpt>
    <trkpt lat="42.943296" lon="141.568532"></trkpt>
    <trkpt lat="42.942677" lon="141.568594"></trkpt>
    <trkpt lat="42.942434" lon="141.568646"></trkpt>
    <trkpt lat="42.942203" lon="141.568719"></trkpt>
    <trkpt lat="42.941882" lon="141.568848"></trkpt>
    <trkpt lat="42.941553" lon="141.569004"></trkpt>
    <trkpt lat="42.941451" lon="141.569053"></trkpt>
    <trkpt lat="42.940953" lon="141.569284"></trkpt>
    <trkpt lat="42.940833" lon="141.569343"></trkpt>
    <trkpt lat="42.940409" lon="141.569580"></trkpt>
    <trkpt lat="42.940132" lon="141.569706"></trkpt>
    <trkpt lat="42.939800" lon="141.569805"></trkpt>
    <trkpt lat="42.937474" lon="141.570257"></trkpt>
    <trkpt lat="42.935504" lon="141.570617"></trkpt>
    <trkpt lat="42.935408" lon="141.570637"></trkpt>
    <trkpt lat="42.934918" lon="141.570725"></trkpt>
    <trkpt lat="42.934510" lon="141.570723"></trkpt>
    <trkpt lat="42.933908" lon="141.570660"></trkpt>
    <trkpt lat="42.931700" lon="141.570305"></trkpt>
    <trkpt lat="42.931126" lon="141.570216"></trkpt>
    <trkpt lat="42.930445" lon="141.570126"></trkpt>
    <trkpt lat="42.930061" lon="141.570126"></trkpt>
    <trkpt lat="42.929778" lon="141.570148"></trkpt>
    <trkpt lat="42.929552" lon="141.570175"></trkpt>
    <trkpt lat="42.929489" lon="141.570122"></trkpt>
    <trkpt lat="42.929433" lon="141.570118"></trkpt>
    <trkpt lat="42.929241" lon="141.570141"></trkpt>
    <trkpt lat="42.928453" lon="141.570266"></trkpt>
    <trkpt lat="42.927798" lon="141.570370"></trkpt>
    <trkpt lat="42.927564" lon="141.570412"></trkpt>
    <trkpt lat="42.927479" lon="141.570425"></trkpt>
    <trkpt lat="42.926246" lon="141.570614"></trkpt>
    <trkpt lat="42.926038" lon="141.570646"></trkpt>
    <trkpt lat="42.924740" lon="141.570792"></trkpt>
    <trkpt lat="42.924583" lon="141.570808"></trkpt>
    <trkpt lat="42.924404" lon="141.570835"></trkpt>
    <trkpt lat="42.924015" lon="141.570901"></trkpt>
    <trkpt lat="42.922966" lon="141.571063"></trkpt>
    <trkpt lat="42.922706" lon="141.571102"></trkpt>
    <trkpt lat="42.921857" lon="141.571266"></trkpt>
    <trkpt lat="42.921753" lon="141.571276"></trkpt>
    <trkpt lat="42.921646" lon="141.571284"></trkpt>
    <trkpt lat="42.921465" lon="141.571313"></trkpt>
    <trkpt lat="42.921362" lon="141.571326"></trkpt>
    <trkpt lat="42.920920" lon="141.571397"></trkpt>
    <trkpt lat="42.920407" lon="141.571480"></trkpt>
    <trkpt lat="42.919561" lon="141.571611"></trkpt>
    <trkpt lat="42.918743" lon="141.571731"></trkpt>
    <trkpt lat="42.918615" lon="141.571751"></trkpt>
    <trkpt lat="42.918508" lon="141.571765"></trkpt>
    <trkpt lat="42.917785" lon="141.571866"></trkpt>
    <trkpt lat="42.917220" lon="141.571960"></trkpt>
    <trkpt lat="42.917118" lon="141.571974"></trkpt>
    <trkpt lat="42.916034" lon="141.572130"></trkpt>
    <trkpt lat="42.916003" lon="141.572135"></trkpt>
    <trkpt lat="42.915870" lon="141.572156"></trkpt>
    <trkpt lat="42.915666" lon="141.572187"></trkpt>
    <trkpt lat="42.915431" lon="141.572224"></trkpt>
    <trkpt lat="42.915210" lon="141.572259"></trkpt>
    <trkpt lat="42.914414" lon="141.572375"></trkpt>
    <trkpt lat="42.914385" lon="141.572380"></trkpt>
    <trkpt lat="42.914154" lon="141.572420"></trkpt>
    <trkpt lat="42.912894" lon="141.572603"></trkpt>
    <trkpt lat="42.912510" lon="141.572669"></trkpt>
    <trkpt lat="42.912139" lon="141.572711"></trkpt>
    <trkpt lat="42.912085" lon="141.572712"></trkpt>
    <trkpt lat="42.911435" lon="141.572779"></trkpt>
    <trkpt lat="42.911284" lon="141.572855"></trkpt>
    <trkpt lat="42.909645" lon="141.572966"></trkpt>
    <trkpt lat="42.907830" lon="141.573082"></trkpt>
    <trkpt lat="42.906938" lon="141.573128"></trkpt>
    <trkpt lat="42.906806" lon="141.573134"></trkpt>
    <trkpt lat="42.906645" lon="141.573165"></trkpt>
    <trkpt lat="42.906469" lon="141.573176"></trkpt>
    <trkpt lat="42.906185" lon="141.573205"></trkpt>
    <trkpt lat="42.905855" lon="141.573212"></trkpt>
    <trkpt lat="42.905666" lon="141.573207"></trkpt>
    <trkpt lat="42.905502" lon="141.573190"></trkpt>
    <trkpt lat="42.905297" lon="141.573150"></trkpt>
    <trkpt lat="42.905159" lon="141.573107"></trkpt>
    <trkpt lat="42.904947" lon="141.573028"></trkpt>
    <trkpt lat="42.904752" lon="141.572929"></trkpt>
    <trkpt lat="42.904633" lon="141.572860"></trkpt>
    <trkpt lat="42.904507" lon="141.572775"></trkpt>
    <trkpt lat="42.904279" lon="141.572591"></trkpt>
    <trkpt lat="42.903955" lon="141.572279"></trkpt>
    <trkpt lat="42.903870" lon="141.572119"></trkpt>
    <trkpt lat="42.903779" lon="141.572040"></trkpt>
    <trkpt lat="42.903558" lon="141.571840"></trkpt>
    <trkpt lat="42.903357" lon="141.571631"></trkpt>
    <trkpt lat="42.902906" lon="141.571196"></trkpt>
    <trkpt lat="42.902610" lon="141.570921"></trkpt>
    <trkpt lat="42.902477" lon="141.570800"></trkpt>
    <trkpt lat="42.902271" lon="141.570609"></trkpt>
    <trkpt lat="42.902176" lon="141.570454"></trkpt>
    <trkpt lat="42.902087" lon="141.570688"></trkpt>
    <trkpt lat="42.901998" lon="141.570929"></trkpt>
    <trkpt lat="42.901389" lon="141.572493"></trkpt>
    <trkpt lat="42.899765" lon="141.576920"></trkpt>
    <trkpt lat="42.898763" lon="141.579667"></trkpt>
    <trkpt lat="42.898589" lon="141.580151"></trkpt>
    <trkpt lat="42.898533" lon="141.580306"></trkpt>
    <trkpt lat="42.898469" lon="141.580491"></trkpt>
    <trkpt lat="42.898138" lon="141.581447"></trkpt>
    <trkpt lat="42.897536" lon="141.583100"></trkpt>
    <trkpt lat="42.897466" lon="141.583291"></trkpt>
    <trkpt lat="42.897399" lon="141.583469"></trkpt>
    <trkpt lat="42.897002" lon="141.584521"></trkpt>
    <trkpt lat="42.896703" lon="141.585342"></trkpt>
    <trkpt lat="42.896691" lon="141.585373"></trkpt>
    <trkpt lat="42.896100" lon="141.586936"></trkpt>
    <trkpt lat="42.895680" lon="141.588044"></trkpt>
    <trkpt lat="42.894891" lon="141.590115"></trkpt>
    <trkpt lat="42.894823" lon="141.590294"></trkpt>
    <trkpt lat="42.894734" lon="141.590493"></trkpt>
    <trkpt lat="42.893907" lon="141.592761"></trkpt>
    <trkpt lat="42.893872" lon="141.592860"></trkpt>
    <trkpt lat="42.893418" lon="141.594124"></trkpt>
    <trkpt lat="42.893030" lon="141.595191"></trkpt>
    <trkpt lat="42.892921" lon="141.595493"></trkpt>
    <trkpt lat="42.892526" lon="141.596559"></trkpt>
    <trkpt lat="42.892458" lon="141.596733"></trkpt>
    <trkpt lat="42.891929" lon="141.598179"></trkpt>
    <trkpt lat="42.891851" lon="141.598400"></trkpt>
    <trkpt lat="42.891835" lon="141.598442"></trkpt>
    <trkpt lat="42.891344" lon="141.599787"></trkpt>
    <trkpt lat="42.890016" lon="141.603439"></trkpt>
    <trkpt lat="42.889962" lon="141.603584"></trkpt>
    <trkpt lat="42.889891" lon="141.603752"></trkpt>
    <trkpt lat="42.889743" lon="141.604104"></trkpt>
    <trkpt lat="42.889502" lon="141.604559"></trkpt>
    <trkpt lat="42.889409" lon="141.604723"></trkpt>
    <trkpt lat="42.889306" lon="141.604893"></trkpt>
    <trkpt lat="42.889048" lon="141.605255"></trkpt>
    <trkpt lat="42.888662" lon="141.605703"></trkpt>
    <trkpt lat="42.888261" lon="141.606078"></trkpt>
    <trkpt lat="42.887980" lon="141.606295"></trkpt>
    <trkpt lat="42.887690" lon="141.606489"></trkpt>
    <trkpt lat="42.887110" lon="141.606782"></trkpt>
    <trkpt lat="42.886364" lon="141.607005"></trkpt>
    <trkpt lat="42.886059" lon="141.607049"></trkpt>
    <trkpt lat="42.885341" lon="141.607153"></trkpt>
    <trkpt lat="42.884780" lon="141.607233"></trkpt>
    <trkpt lat="42.884684" lon="141.607247"></trkpt>
    <trkpt lat="42.884575" lon="141.607261"></trkpt>
    <trkpt lat="42.882525" lon="141.607554"></trkpt>
    <trkpt lat="42.882421" lon="141.607569"></trkpt>
    <trkpt lat="42.882312" lon="141.607583"></trkpt>
    <trkpt lat="42.881112" lon="141.607737"></trkpt>
    <trkpt lat="42.879732" lon="141.607931"></trkpt>
    <trkpt lat="42.878398" lon="141.608114"></trkpt>
    <trkpt lat="42.877162" lon="141.608280"></trkpt>
    <trkpt lat="42.877038" lon="141.608297"></trkpt>
    <trkpt lat="42.876881" lon="141.608315"></trkpt>
    <trkpt lat="42.876398" lon="141.608373"></trkpt>
    <trkpt lat="42.876197" lon="141.608386"></trkpt>
    <trkpt lat="42.875761" lon="141.608383"></trkpt>
    <trkpt lat="42.875424" lon="141.608357"></trkpt>
    <trkpt lat="42.874927" lon="141.608244"></trkpt>
    <trkpt lat="42.874503" lon="141.608159"></trkpt>
    <trkpt lat="42.874182" lon="141.608069"></trkpt>
    <trkpt lat="42.873907" lon="141.607971"></trkpt>
    <trkpt lat="42.873306" lon="141.607710"></trkpt>
    <trkpt lat="42.873098" lon="141.607602"></trkpt>
    <trkpt lat="42.872951" lon="141.607520"></trkpt>
    <trkpt lat="42.872672" lon="141.607346"></trkpt>
    <trkpt lat="42.872033" lon="141.606908"></trkpt>
    <trkpt lat="42.871918" lon="141.606825"></trkpt>
    <trkpt lat="42.871792" lon="141.606759"></trkpt>
    <trkpt lat="42.871568" lon="141.606594"></trkpt>
    <trkpt lat="42.869638" lon="141.605267"></trkpt>
    <trkpt lat="42.866664" lon="141.603261"></trkpt>
    <trkpt lat="42.865542" lon="141.602512"></trkpt>
    <trkpt lat="42.865185" lon="141.602270"></trkpt>
    <trkpt lat="42.864592" lon="141.601873"></trkpt>
    <trkpt lat="42.862696" lon="141.600600"></trkpt>
    <trkpt lat="42.861794" lon="141.600017"></trkpt>
    <trkpt lat="42.861623" lon="141.599906"></trkpt>
    <trkpt lat="42.861497" lon="141.600077"></trkpt>
    <trkpt lat="42.861070" lon="141.600612"></trkpt>
    <trkpt lat="42.859710" lon="141.602403"></trkpt>
    <trkpt lat="42.858477" lon="141.604042"></trkpt>
    <trkpt lat="42.858216" lon="141.604437"></trkpt>
    <trkpt lat="42.857996" lon="141.604800"></trkpt>
    <trkpt lat="42.857757" lon="141.605330"></trkpt>
    <trkpt lat="42.857651" lon="141.605592"></trkpt>
    <trkpt lat="42.857194" lon="141.607103"></trkpt>
    <trkpt lat="42.856945" lon="141.607665"></trkpt>
    <trkpt lat="42.856644" lon="141.608174"></trkpt>
    <trkpt lat="42.856255" lon="141.608643"></trkpt>
    <trkpt lat="42.855830" lon="141.609027"></trkpt>
    <trkpt lat="42.855468" lon="141.609259"></trkpt>
    <trkpt lat="42.855060" lon="141.609430"></trkpt>
    <trkpt lat="42.854256" lon="141.609708"></trkpt>
    <trkpt lat="42.851357" lon="141.610640"></trkpt>
    <trkpt lat="42.850713" lon="141.610836"></trkpt>
    <trkpt lat="42.850224" lon="141.611009"></trkpt>
    <trkpt lat="42.849813" lon="141.611134"></trkpt>
    <trkpt lat="42.849235" lon="141.611340"></trkpt>
    <trkpt lat="42.848651" lon="141.611703"></trkpt>
    <trkpt lat="42.848288" lon="141.612047"></trkpt>
    <trkpt lat="42.847997" lon="141.612393"></trkpt>
    <trkpt lat="42.847887" lon="141.612524"></trkpt>
    <trkpt lat="42.847780" lon="141.612658"></trkpt>
    <trkpt lat="42.847197" lon="141.613385"></trkpt>
    <trkpt lat="42.846681" lon="141.614019"></trkpt>
    <trkpt lat="42.846490" lon="141.614253"></trkpt>
    <trkpt lat="42.843370" lon="141.618082"></trkpt>
    <trkpt lat="42.843268" lon="141.618208"></trkpt>
    <trkpt lat="42.843133" lon="141.618372"></trkpt>
    <trkpt lat="42.841170" lon="141.620757"></trkpt>
    <trkpt lat="42.839304" lon="141.623039"></trkpt>
    <trkpt lat="42.839198" lon="141.623161"></trkpt>
    <trkpt lat="42.839149" lon="141.623225"></trkpt>
    <trkpt lat="42.839077" lon="141.623320"></trkpt>
    <trkpt lat="42.838718" lon="141.623784"></trkpt>
    <trkpt lat="42.838607" lon="141.623847"></trkpt>
    <trkpt lat="42.837180" lon="141.625604"></trkpt>
    <trkpt lat="42.836779" lon="141.626097"></trkpt>
    <trkpt lat="42.836742" lon="141.626143"></trkpt>
    <trkpt lat="42.836273" lon="141.626710"></trkpt>
    <trkpt lat="42.836208" lon="141.626801"></trkpt>
    <trkpt lat="42.836130" lon="141.626898"></trkpt>
    <trkpt lat="42.835279" lon="141.627952"></trkpt>
    <trkpt lat="42.835183" lon="141.628064"></trkpt>
    <trkpt lat="42.833957" lon="141.629580"></trkpt>
    <trkpt lat="42.833906" lon="141.629631"></trkpt>
    <trkpt lat="42.833599" lon="141.630012"></trkpt>
    <trkpt lat="42.833295" lon="141.630376"></trkpt>
    <trkpt lat="42.833218" lon="141.630465"></trkpt>
    <trkpt lat="42.833096" lon="141.630621"></trkpt>
    <trkpt lat="42.832784" lon="141.631015"></trkpt>
    <trkpt lat="42.831874" lon="141.632120"></trkpt>
    <trkpt lat="42.831240" lon="141.632879"></trkpt>
    <trkpt lat="42.831130" lon="141.633022"></trkpt>
    <trkpt lat="42.831051" lon="141.633125"></trkpt>
    <trkpt lat="42.830448" lon="141.633834"></trkpt>
    <trkpt lat="42.829778" lon="141.634659"></trkpt>
    <trkpt lat="42.829747" lon="141.634698"></trkpt>
    <trkpt lat="42.829092" lon="141.635505"></trkpt>
    <trkpt lat="42.827312" lon="141.637699"></trkpt>
    <trkpt lat="42.827120" lon="141.637936"></trkpt>
    <trkpt lat="42.827041" lon="141.638032"></trkpt>
    <trkpt lat="42.825815" lon="141.639545"></trkpt>
    <trkpt lat="42.824818" lon="141.640796"></trkpt>
    <trkpt lat="42.824729" lon="141.640903"></trkpt>
    <trkpt lat="42.824664" lon="141.640980"></trkpt>
    <trkpt lat="42.823579" lon="141.642296"></trkpt>
    <trkpt lat="42.823510" lon="141.642384"></trkpt>
    <trkpt lat="42.823452" lon="141.642455"></trkpt>
    <trkpt lat="42.822740" lon="141.643315"></trkpt>
    <trkpt lat="42.822632" lon="141.643446"></trkpt>
    <trkpt lat="42.822534" lon="141.643566"></trkpt>
    <trkpt lat="42.822167" lon="141.644018"></trkpt>
    <trkpt lat="42.821889" lon="141.644360"></trkpt>
    <trkpt lat="42.821802" lon="141.644466"></trkpt>
    <trkpt lat="42.821464" lon="141.644871"></trkpt>
    <trkpt lat="42.821357" lon="141.644998"></trkpt>
    <trkpt lat="42.821248" lon="141.645132"></trkpt>
    <trkpt lat="42.821126" lon="141.645281"></trkpt>
    <trkpt lat="42.820515" lon="141.645998"></trkpt>
    <trkpt lat="42.820426" lon="141.646106"></trkpt>
    <trkpt lat="42.820367" lon="141.646177"></trkpt>
    <trkpt lat="42.820338" lon="141.646212"></trkpt>
    <trkpt lat="42.820096" lon="141.646507"></trkpt>
    <trkpt lat="42.820008" lon="141.646607"></trkpt>
    <trkpt lat="42.819969" lon="141.646637"></trkpt>
    <trkpt lat="42.819738" lon="141.646779"></trkpt>
    <trkpt lat="42.819350" lon="141.646934"></trkpt>
    <trkpt lat="42.819228" lon="141.646977"></trkpt>
    <trkpt lat="42.818687" lon="141.647211"></trkpt>
    <trkpt lat="42.818395" lon="141.647424"></trkpt>
    <trkpt lat="42.818347" lon="141.647471"></trkpt>
    <trkpt lat="42.818261" lon="141.647543"></trkpt>
    <trkpt lat="42.818334" lon="141.647644"></trkpt>
    <trkpt lat="42.818606" lon="141.648228"></trkpt>
    <trkpt lat="42.818820" lon="141.648655"></trkpt>
    <trkpt lat="42.818901" lon="141.648827"></trkpt>
    <trkpt lat="42.818948" lon="141.648906"></trkpt>
    <trkpt lat="42.819010" lon="141.649000"></trkpt>
    <trkpt lat="42.819110" lon="141.649151"></trkpt>
    <trkpt lat="42.819395" lon="141.649458"></trkpt>
    <trkpt lat="42.819822" lon="141.650009"></trkpt>
    <trkpt lat="42.820316" lon="141.650624"></trkpt>
    <trkpt lat="42.820832" lon="141.651262"></trkpt>
    <trkpt lat="42.820832" lon="141.651262"></trkpt>
    <trkpt lat="42.820865" lon="141.651303"></trkpt>
    <trkpt lat="42.821196" lon="141.651701"></trkpt>
    <trkpt lat="42.821287" lon="141.651811"></trkpt>
    <trkpt lat="42.821359" lon="141.651908"></trkpt>
    <trkpt lat="42.822050" lon="141.652813"></trkpt>
    <trkpt lat="42.822344" lon="141.653207"></trkpt>
    <trkpt lat="42.822991" lon="141.654072"></trkpt>
    <trkpt lat="42.823037" lon="141.654133"></trkpt>
    <trkpt lat="42.823084" lon="141.654195"></trkpt>
    <trkpt lat="42.823550" lon="141.654795"></trkpt>
    <trkpt lat="42.823925" lon="141.655295"></trkpt>
    <trkpt lat="42.824046" lon="141.655454"></trkpt>
    <trkpt lat="42.823951" lon="141.655566"></trkpt>
    <trkpt lat="42.822985" lon="141.656707"></trkpt>
    <trkpt lat="42.822961" lon="141.656736"></trkpt>
    <trkpt lat="42.822830" lon="141.656899"></trkpt>
    <trkpt lat="42.822698" lon="141.657061"></trkpt>
    <trkpt lat="42.822350" lon="141.657464"></trkpt>
    <trkpt lat="42.822077" lon="141.657781"></trkpt>
    <trkpt lat="42.821618" lon="141.658356"></trkpt>
    <trkpt lat="42.821431" lon="141.658608"></trkpt>
    <trkpt lat="42.821306" lon="141.658810"></trkpt>
    <trkpt lat="42.821010" lon="141.659234"></trkpt>
    <trkpt lat="42.820799" lon="141.659532"></trkpt>
    <trkpt lat="42.820579" lon="141.659835"></trkpt>
    <trkpt lat="42.820385" lon="141.660127"></trkpt>
    <trkpt lat="42.820342" lon="141.660193"></trkpt>
    <trkpt lat="42.820286" lon="141.660264"></trkpt>
    <trkpt lat="42.819081" lon="141.662009"></trkpt>
    <trkpt lat="42.814733" lon="141.667146"></trkpt>
    <trkpt lat="42.809624" lon="141.673049"></trkpt>
    <trkpt lat="42.808209" lon="141.674713"></trkpt>
    <trkpt lat="42.806946" lon="141.676198"></trkpt>
    <trkpt lat="42.806100" lon="141.677196"></trkpt>
    <trkpt lat="42.805949" lon="141.677387"></trkpt>
    <trkpt lat="42.805612" lon="141.677812"></trkpt>
    <trkpt lat="42.804129" lon="141.679664"></trkpt>
    <trkpt lat="42.802742" lon="141.681338"></trkpt>
    <trkpt lat="42.801782" lon="141.682459"></trkpt>
    <trkpt lat="42.800840" lon="141.683541"></trkpt>
    <trkpt lat="42.799903" lon="141.684631"></trkpt>
    <trkpt lat="42.799245" lon="141.685374"></trkpt>
    <trkpt lat="42.797331" lon="141.687438"></trkpt>
    <trkpt lat="42.795930" lon="141.689060"></trkpt>
    <trkpt lat="42.795851" lon="141.689151"></trkpt>
    <trkpt lat="42.795775" lon="141.689247"></trkpt>
    <trkpt lat="42.793321" lon="141.692179"></trkpt>
    <trkpt lat="42.790784" lon="141.695167"></trkpt>
    <trkpt lat="42.787492" lon="141.698980"></trkpt>
    <trkpt lat="42.787193" lon="141.699289"></trkpt>
    <trkpt lat="42.786817" lon="141.699669"></trkpt>
    <trkpt lat="42.786532" lon="141.699895"></trkpt>
    <trkpt lat="42.786144" lon="141.700136"></trkpt>
    <trkpt lat="42.781189" lon="141.702545"></trkpt>
    <trkpt lat="42.779361" lon="141.703436"></trkpt>
    <trkpt lat="42.777700" lon="141.704244"></trkpt>
    <trkpt lat="42.775227" lon="141.705417"></trkpt>
    <trkpt lat="42.774245" lon="141.705934"></trkpt>
    <trkpt lat="42.771974" lon="141.707037"></trkpt>
    <trkpt lat="42.771521" lon="141.707253"></trkpt>
    <trkpt lat="42.770993" lon="141.707532"></trkpt>
    <trkpt lat="42.770456" lon="141.707813"></trkpt>
    <trkpt lat="42.768250" lon="141.708961"></trkpt>
    <trkpt lat="42.767801" lon="141.709183"></trkpt>
    <trkpt lat="42.767559" lon="141.709272"></trkpt>
    <trkpt lat="42.767165" lon="141.709362"></trkpt>
    <trkpt lat="42.766346" lon="141.709479"></trkpt>
    <trkpt lat="42.764042" lon="141.709841"></trkpt>
    <trkpt lat="42.762170" lon="141.710173"></trkpt>
    <trkpt lat="42.761375" lon="141.710317"></trkpt>
    <trkpt lat="42.759890" lon="141.710576"></trkpt>
    <trkpt lat="42.759198" lon="141.710684"></trkpt>
    <trkpt lat="42.757708" lon="141.710812"></trkpt>
    <trkpt lat="42.755192" lon="141.710930"></trkpt>
    <trkpt lat="42.751699" lon="141.711060"></trkpt>
    <trkpt lat="42.750895" lon="141.711126"></trkpt>
    <trkpt lat="42.750471" lon="141.711117"></trkpt>
    <trkpt lat="42.749698" lon="141.711035"></trkpt>
    <trkpt lat="42.749083" lon="141.710930"></trkpt>
    <trkpt lat="42.745021" lon="141.710092"></trkpt>
    <trkpt lat="42.744217" lon="141.709975"></trkpt>
    <trkpt lat="42.743618" lon="141.709883"></trkpt>
    <trkpt lat="42.743067" lon="141.709836"></trkpt>
    <trkpt lat="42.741197" lon="141.709715"></trkpt>
    <trkpt lat="42.740106" lon="141.709667"></trkpt>
    <trkpt lat="42.738738" lon="141.709646"></trkpt>
    <trkpt lat="42.737610" lon="141.709600"></trkpt>
    <trkpt lat="42.735743" lon="141.709490"></trkpt>
    <trkpt lat="42.735359" lon="141.709476"></trkpt>
    <trkpt lat="42.734755" lon="141.709387"></trkpt>
    <trkpt lat="42.734429" lon="141.709317"></trkpt>
    <trkpt lat="42.733414" lon="141.709069"></trkpt>
    <trkpt lat="42.733163" lon="141.709008"></trkpt>
    <trkpt lat="42.732265" lon="141.708789"></trkpt>
    <trkpt lat="42.730600" lon="141.708461"></trkpt>
    <trkpt lat="42.729480" lon="141.708493"></trkpt>
    <trkpt lat="42.726614" lon="141.709126"></trkpt>
    <trkpt lat="42.724590" lon="141.709554"></trkpt>
    <trkpt lat="42.723413" lon="141.709845"></trkpt>
    <trkpt lat="42.723166" lon="141.709895"></trkpt>
    <trkpt lat="42.722715" lon="141.709992"></trkpt>
    <trkpt lat="42.722468" lon="141.710017"></trkpt>
    <trkpt lat="42.722057" lon="141.709994"></trkpt>
    <trkpt lat="42.721785" lon="141.709942"></trkpt>
    <trkpt lat="42.721559" lon="141.709870"></trkpt>
    <trkpt lat="42.721044" lon="141.709667"></trkpt>
    <trkpt lat="42.720420" lon="141.709389"></trkpt>
    <trkpt lat="42.719963" lon="141.709182"></trkpt>
    <trkpt lat="42.719730" lon="141.709078"></trkpt>
    <trkpt lat="42.719506" lon="141.708970"></trkpt>
    <trkpt lat="42.719182" lon="141.708811"></trkpt>
    <trkpt lat="42.719036" lon="141.708741"></trkpt>
    <trkpt lat="42.717749" lon="141.708151"></trkpt>
    <trkpt lat="42.717662" lon="141.708112"></trkpt>
    <trkpt lat="42.717498" lon="141.708037"></trkpt>
    <trkpt lat="42.716711" lon="141.707630"></trkpt>
    <trkpt lat="42.716546" lon="141.707545"></trkpt>
    <trkpt lat="42.716348" lon="141.707442"></trkpt>
    <trkpt lat="42.716136" lon="141.707296"></trkpt>
    <trkpt lat="42.715921" lon="141.707148"></trkpt>
    <trkpt lat="42.715821" lon="141.707065"></trkpt>
    <trkpt lat="42.715088" lon="141.706452"></trkpt>
    <trkpt lat="42.714638" lon="141.706035"></trkpt>
    <trkpt lat="42.714369" lon="141.705817"></trkpt>
    <trkpt lat="42.712781" lon="141.704408"></trkpt>
    <trkpt lat="42.711375" lon="141.703179"></trkpt>
    <trkpt lat="42.710373" lon="141.702327"></trkpt>
    <trkpt lat="42.710037" lon="141.702043"></trkpt>
    <trkpt lat="42.709297" lon="141.701356"></trkpt>
    <trkpt lat="42.708993" lon="141.701051"></trkpt>
    <trkpt lat="42.707602" lon="141.699815"></trkpt>
    <trkpt lat="42.707495" lon="141.699728"></trkpt>
    <trkpt lat="42.706574" lon="141.698924"></trkpt>
    <trkpt lat="42.705972" lon="141.698384"></trkpt>
    <trkpt lat="42.705855" lon="141.698279"></trkpt>
    <trkpt lat="42.705623" lon="141.698071"></trkpt>
    <trkpt lat="42.703064" lon="141.695819"></trkpt>
    <trkpt lat="42.701973" lon="141.694848"></trkpt>
    <trkpt lat="42.701554" lon="141.694492"></trkpt>
    <trkpt lat="42.700710" lon="141.693729"></trkpt>
    <trkpt lat="42.700547" lon="141.693588"></trkpt>
    <trkpt lat="42.699890" lon="141.693001"></trkpt>
    <trkpt lat="42.699749" lon="141.692891"></trkpt>
    <trkpt lat="42.699648" lon="141.692820"></trkpt>
    <trkpt lat="42.699602" lon="141.692778"></trkpt>
    <trkpt lat="42.699522" lon="141.692715"></trkpt>
    <trkpt lat="42.699163" lon="141.692437"></trkpt>
    <trkpt lat="42.698764" lon="141.692085"></trkpt>
    <trkpt lat="42.698293" lon="141.691670"></trkpt>
    <trkpt lat="42.697673" lon="141.691146"></trkpt>
    <trkpt lat="42.697515" lon="141.691011"></trkpt>
    <trkpt lat="42.696502" lon="141.690179"></trkpt>
    <trkpt lat="42.695603" lon="141.689380"></trkpt>
    <trkpt lat="42.694753" lon="141.688699"></trkpt>
    <trkpt lat="42.693716" lon="141.687820"></trkpt>
    <trkpt lat="42.693497" lon="141.687625"></trkpt>
    <trkpt lat="42.693247" lon="141.687405"></trkpt>
    <trkpt lat="42.692999" lon="141.687191"></trkpt>
    <trkpt lat="42.692537" lon="141.686787"></trkpt>
    <trkpt lat="42.691773" lon="141.686106"></trkpt>
    <trkpt lat="42.691033" lon="141.685468"></trkpt>
    <trkpt lat="42.690888" lon="141.685349"></trkpt>
    <trkpt lat="42.690289" lon="141.684800"></trkpt>
    <trkpt lat="42.689305" lon="141.683904"></trkpt>
    <trkpt lat="42.689140" lon="141.683758"></trkpt>
    <trkpt lat="42.688924" lon="141.683542"></trkpt>
    <trkpt lat="42.688797" lon="141.683420"></trkpt>
    <trkpt lat="42.688146" lon="141.682816"></trkpt>
    <trkpt lat="42.687626" lon="141.682328"></trkpt>
    <trkpt lat="42.686741" lon="141.681473"></trkpt>
    <trkpt lat="42.686316" lon="141.681087"></trkpt>
    <trkpt lat="42.685066" lon="141.679936"></trkpt>
    <trkpt lat="42.684477" lon="141.679396"></trkpt>
    <trkpt lat="42.684397" lon="141.679328"></trkpt>
    <trkpt lat="42.683811" lon="141.678837"></trkpt>
    <trkpt lat="42.683526" lon="141.678579"></trkpt>
    <trkpt lat="42.683149" lon="141.678213"></trkpt>
    <trkpt lat="42.682745" lon="141.677798"></trkpt>
    <trkpt lat="42.681786" lon="141.676838"></trkpt>
    <trkpt lat="42.681532" lon="141.676580"></trkpt>
    <trkpt lat="42.681442" lon="141.676480"></trkpt>
    <trkpt lat="42.681350" lon="141.676385"></trkpt>
    <trkpt lat="42.681247" lon="141.676274"></trkpt>
    <trkpt lat="42.680617" lon="141.675569"></trkpt>
    <trkpt lat="42.680000" lon="141.674850"></trkpt>
    <trkpt lat="42.679651" lon="141.674441"></trkpt>
    <trkpt lat="42.679494" lon="141.674257"></trkpt>
    <trkpt lat="42.679364" lon="141.674106"></trkpt>
    <trkpt lat="42.678631" lon="141.673183"></trkpt>
    <trkpt lat="42.678540" lon="141.673068"></trkpt>
    <trkpt lat="42.676359" lon="141.670281"></trkpt>
    <trkpt lat="42.676126" lon="141.669993"></trkpt>
    <trkpt lat="42.675737" lon="141.669349"></trkpt>
    <trkpt lat="42.675449" lon="141.668738"></trkpt>
    <trkpt lat="42.675416" lon="141.668652"></trkpt>
    <trkpt lat="42.675114" lon="141.667866"></trkpt>
    <trkpt lat="42.674853" lon="141.667021"></trkpt>
    <trkpt lat="42.674773" lon="141.666784"></trkpt>
    <trkpt lat="42.674742" lon="141.666693"></trkpt>
    <trkpt lat="42.674070" lon="141.664657"></trkpt>
    <trkpt lat="42.673288" lon="141.662401"></trkpt>
    <trkpt lat="42.672016" lon="141.658586"></trkpt>
    <trkpt lat="42.671971" lon="141.658443"></trkpt>
    <trkpt lat="42.671901" lon="141.658227"></trkpt>
    <trkpt lat="42.671809" lon="141.657952"></trkpt>
    <trkpt lat="42.671552" lon="141.658099"></trkpt>
    <trkpt lat="42.669586" lon="141.659302"></trkpt>
    <trkpt lat="42.669545" lon="141.659327"></trkpt>
    <trkpt lat="42.669407" lon="141.659422"></trkpt>
    <trkpt lat="42.669264" lon="141.659523"></trkpt>
    <trkpt lat="42.668249" lon="141.660136"></trkpt>
    <trkpt lat="42.667759" lon="141.660412"></trkpt>
    <trkpt lat="42.667273" lon="141.660713"></trkpt>
    <trkpt lat="42.667239" lon="141.660734"></trkpt>
    <trkpt lat="42.667096" lon="141.660831"></trkpt>
    <trkpt lat="42.666959" lon="141.660933"></trkpt>
    <trkpt lat="42.666058" lon="141.661497"></trkpt>
    <trkpt lat="42.664924" lon="141.662206"></trkpt>
    <trkpt lat="42.664899" lon="141.662221"></trkpt>
    <trkpt lat="42.664749" lon="141.662316"></trkpt>
    <trkpt lat="42.664660" lon="141.662371"></trkpt>
    <trkpt lat="42.664616" lon="141.662243"></trkpt>
    <trkpt lat="42.664557" lon="141.662067"></trkpt>
    <trkpt lat="42.664268" lon="141.661213"></trkpt>
    <trkpt lat="42.663811" lon="141.659864"></trkpt>
    <trkpt lat="42.663662" lon="141.659425"></trkpt>
    <trkpt lat="42.663333" lon="141.658455"></trkpt>
    <trkpt lat="42.663249" lon="141.658207"></trkpt>
    <trkpt lat="42.662863" lon="141.657037"></trkpt>
    <trkpt lat="42.662488" lon="141.655944"></trkpt>
    <trkpt lat="42.662220" lon="141.655139"></trkpt>
    <trkpt lat="42.662152" lon="141.654927"></trkpt>
    <trkpt lat="42.662035" lon="141.654582"></trkpt>
    <trkpt lat="42.661915" lon="141.654222"></trkpt>
    <trkpt lat="42.661819" lon="141.653936"></trkpt>
    <trkpt lat="42.661733" lon="141.653676"></trkpt>
    <trkpt lat="42.661527" lon="141.653060"></trkpt>
    <trkpt lat="42.661413" lon="141.652716"></trkpt>
    <trkpt lat="42.661367" lon="141.652581"></trkpt>
    <trkpt lat="42.661308" lon="141.652404"></trkpt>
    <trkpt lat="42.660955" lon="141.651358"></trkpt>
    <trkpt lat="42.660567" lon="141.650207"></trkpt>
    <trkpt lat="42.660370" lon="141.649667"></trkpt>
    <trkpt lat="42.660180" lon="141.649099"></trkpt>
    <trkpt lat="42.660139" lon="141.648964"></trkpt>
    <trkpt lat="42.659745" lon="141.647780"></trkpt>
    <trkpt lat="42.659576" lon="141.647296"></trkpt>
    <trkpt lat="42.659326" lon="141.646578"></trkpt>
    <trkpt lat="42.659220" lon="141.646254"></trkpt>
    <trkpt lat="42.659168" lon="141.646093"></trkpt>
    <trkpt lat="42.659108" lon="141.645915"></trkpt>
    <trkpt lat="42.658695" lon="141.644689"></trkpt>
    <trkpt lat="42.658571" lon="141.644301"></trkpt>
    <trkpt lat="42.658005" lon="141.642629"></trkpt>
    <trkpt lat="42.657323" lon="141.640615"></trkpt>
    <trkpt lat="42.657282" lon="141.640490"></trkpt>
    <trkpt lat="42.657255" lon="141.640401"></trkpt>
    <trkpt lat="42.657212" lon="141.640261"></trkpt>
    <trkpt lat="42.656596" lon="141.638437"></trkpt>
    <trkpt lat="42.656536" lon="141.638284"></trkpt>
    <trkpt lat="42.656480" lon="141.638112"></trkpt>
    <trkpt lat="42.655811" lon="141.636186"></trkpt>
    <trkpt lat="42.655514" lon="141.635238"></trkpt>
    <trkpt lat="42.655446" lon="141.635028"></trkpt>
    <trkpt lat="42.655432" lon="141.634983"></trkpt>
    <trkpt lat="42.655371" lon="141.634806"></trkpt>
    <trkpt lat="42.655304" lon="141.634609"></trkpt>
    <trkpt lat="42.655054" lon="141.633871"></trkpt>
    <trkpt lat="42.654784" lon="141.633064"></trkpt>
    <trkpt lat="42.654556" lon="141.632380"></trkpt>
    <trkpt lat="42.654321" lon="141.631712"></trkpt>
    <trkpt lat="42.654190" lon="141.631301"></trkpt>
    <trkpt lat="42.654004" lon="141.630765"></trkpt>
    <trkpt lat="42.653875" lon="141.630377"></trkpt>
    <trkpt lat="42.653798" lon="141.630143"></trkpt>
    <trkpt lat="42.653757" lon="141.630021"></trkpt>
    <trkpt lat="42.653684" lon="141.629809"></trkpt>
    <trkpt lat="42.653463" lon="141.629164"></trkpt>
    <trkpt lat="42.653328" lon="141.628762"></trkpt>
    <trkpt lat="42.653043" lon="141.627922"></trkpt>
    <trkpt lat="42.652787" lon="141.627154"></trkpt>
    <trkpt lat="42.652769" lon="141.627103"></trkpt>
    <trkpt lat="42.652713" lon="141.626941"></trkpt>
    <trkpt lat="42.652661" lon="141.626780"></trkpt>
    <trkpt lat="42.652564" lon="141.626491"></trkpt>
    <trkpt lat="42.652498" lon="141.626295"></trkpt>
    <trkpt lat="42.652423" lon="141.626072"></trkpt>
    <trkpt lat="42.652298" lon="141.625718"></trkpt>
    <trkpt lat="42.651839" lon="141.624344"></trkpt>
    <trkpt lat="42.651484" lon="141.623284"></trkpt>
    <trkpt lat="42.651132" lon="141.622188"></trkpt>
    <trkpt lat="42.651118" lon="141.622147"></trkpt>
    <trkpt lat="42.651064" lon="141.621987"></trkpt>
    <trkpt lat="42.651007" lon="141.621813"></trkpt>
    <trkpt lat="42.650468" lon="141.620237"></trkpt>
    <trkpt lat="42.650342" lon="141.619861"></trkpt>
    <trkpt lat="42.649888" lon="141.618514"></trkpt>
    <trkpt lat="42.649392" lon="141.617033"></trkpt>
    <trkpt lat="42.649322" lon="141.616920"></trkpt>
    <trkpt lat="42.649283" lon="141.616879"></trkpt>
    <trkpt lat="42.649221" lon="141.616830"></trkpt>
    <trkpt lat="42.649158" lon="141.616788"></trkpt>
    <trkpt lat="42.649088" lon="141.616749"></trkpt>
    <trkpt lat="42.648212" lon="141.617289"></trkpt>
    <trkpt lat="42.647621" lon="141.617563"></trkpt>
    <trkpt lat="42.647081" lon="141.617888"></trkpt>
    <trkpt lat="42.646577" lon="141.618199"></trkpt>
    <trkpt lat="42.646218" lon="141.618434"></trkpt>
    <trkpt lat="42.645866" lon="141.618632"></trkpt>
    <trkpt lat="42.645590" lon="141.618752"></trkpt>
    <trkpt lat="42.645327" lon="141.618832"></trkpt>
    <trkpt lat="42.644929" lon="141.618881"></trkpt>
    <trkpt lat="42.644497" lon="141.618871"></trkpt>
    <trkpt lat="42.644150" lon="141.618811"></trkpt>
    <trkpt lat="42.643772" lon="141.618658"></trkpt>
    <trkpt lat="42.643541" lon="141.618602"></trkpt>
    <trkpt lat="42.643281" lon="141.618550"></trkpt>
    <trkpt lat="42.643165" lon="141.618523"></trkpt>
    <trkpt lat="42.643121" lon="141.618517"></trkpt>
    <trkpt lat="42.643016" lon="141.618496"></trkpt>
    <trkpt lat="42.642882" lon="141.618426"></trkpt>
    <trkpt lat="42.642785" lon="141.618256"></trkpt>
    <trkpt lat="42.642458" lon="141.617684"></trkpt>
    <trkpt lat="42.642176" lon="141.617196"></trkpt>
    <trkpt lat="42.642102" lon="141.617063"></trkpt>
    <trkpt lat="42.642012" lon="141.616909"></trkpt>
    <trkpt lat="42.641799" lon="141.616545"></trkpt>
    <trkpt lat="42.641545" lon="141.616114"></trkpt>
    <trkpt lat="42.641187" lon="141.615499"></trkpt>
    <trkpt lat="42.641083" lon="141.615326"></trkpt>
    <trkpt lat="42.641057" lon="141.615284"></trkpt>
    <trkpt lat="42.640998" lon="141.615186"></trkpt>
    <trkpt lat="42.640945" lon="141.615094"></trkpt>
    <trkpt lat="42.640858" lon="141.614948"></trkpt>
    <trkpt lat="42.640430" lon="141.614225"></trkpt>
    <trkpt lat="42.640207" lon="141.613847"></trkpt>
    <trkpt lat="42.640066" lon="141.613609"></trkpt>
    <trkpt lat="42.639593" lon="141.612805"></trkpt>
    <trkpt lat="42.639258" lon="141.612238"></trkpt>
    <trkpt lat="42.639182" lon="141.612109"></trkpt>
    <trkpt lat="42.639143" lon="141.612042"></trkpt>
    <trkpt lat="42.639071" lon="141.611921"></trkpt>
    <trkpt lat="42.639001" lon="141.611798"></trkpt>
    <trkpt lat="42.638910" lon="141.611644"></trkpt>
    <trkpt lat="42.638504" lon="141.610959"></trkpt>
    <trkpt lat="42.638422" lon="141.610821"></trkpt>
    <trkpt lat="42.637654" lon="141.609518"></trkpt>
    <trkpt lat="42.637331" lon="141.608970"></trkpt>
    <trkpt lat="42.637124" lon="141.608620"></trkpt>
    <trkpt lat="42.636300" lon="141.607217"></trkpt>
    <trkpt lat="42.636015" lon="141.606731"></trkpt>
    <trkpt lat="42.635821" lon="141.606420"></trkpt>
    <trkpt lat="42.635797" lon="141.606379"></trkpt>
    <trkpt lat="42.635731" lon="141.606271"></trkpt>
    <trkpt lat="42.635671" lon="141.606172"></trkpt>
    <trkpt lat="42.635609" lon="141.606069"></trkpt>
    <trkpt lat="42.635286" lon="141.605517"></trkpt>
    <trkpt lat="42.635098" lon="141.605183"></trkpt>
    <trkpt lat="42.634915" lon="141.604867"></trkpt>
    <trkpt lat="42.634696" lon="141.604497"></trkpt>
    <trkpt lat="42.634652" lon="141.604427"></trkpt>
    <trkpt lat="42.634625" lon="141.604377"></trkpt>
    <trkpt lat="42.634509" lon="141.604184"></trkpt>
    <trkpt lat="42.634438" lon="141.604226"></trkpt>
    <trkpt lat="42.634374" lon="141.604285"></trkpt>
    <trkpt lat="42.633906" lon="141.604781"></trkpt>
    <trkpt lat="42.633952" lon="141.604850"></trkpt>
    <trkpt lat="42.634028" lon="141.604966"></trkpt>
  </trkseg></trk>
</gpx>
